ATLAS CENTAUR R/B       
1 06155U 72065B   26064.84215344  .00001870  00000+0  25765-3 0  9999
2 06155  35.0026 328.3015 0033983 336.5094  23.4054 14.77675433840695
SL-8 R/B                
1 08459U 75112B   26064.32952162  .00000334  00000+0  11859-3 0  9996
2 08459  74.0619  26.9320 0014529 122.0340 238.2228 14.38200686631241
SL-3 R/B                
1 10114U 77057B   26064.76929421  .00016289  00000+0  34274-3 0  9999
2 10114  97.5765 236.5180 0006267 301.5835  58.4801 15.45361859667720
SEASAT 1                
1 10967U 78064A   26064.69164004  .00000311  00000+0  12535-3 0  9999
2 10967 108.0118 117.1103 0002223 287.0341  73.0561 14.46156505505933
SL-14 R/B               
1 11267U 79011B   26064.55628380  .00000792  00000+0  75615-4 0  9995
2 11267  82.5213 100.4941 0017573  73.2348 287.0798 14.91902860528162
SL-8 R/B                
1 11574U 79089B   26064.51458021  .00000375  00000+0  12143-3 0  9993
2 11574  74.0672  98.7734 0017140 271.8665  88.0529 14.42347568435505
SL-14 R/B               
1 11672U 80005B   26064.70081557  .00000788  00000+0  77161-4 0  9999
2 11672  82.5152 311.0198 0015837 171.2288 188.9211 14.90925161475899
SL-8 R/B                
1 12139U 81003B   26064.69574547  .00021368  00000+0  55036-3 0  9994
2 12139  82.9384 293.7177 0262609 192.5103 166.9532 15.10785815314072
SL-3 R/B                
1 12465U 81046B   26064.76102645  .00014614  00000+0  34103-3 0  9995
2 12465  81.2301 294.4623 0019904  35.6397 324.6170 15.41873551437828
SL-3 R/B                
1 12904U 81103B   26064.82600212  .00008168  00000+0  36312-3 0  9998
2 12904  81.1583 217.9640 0012483 300.4748  59.5250 15.21320667972644
SL-3 R/B                
1 13068U 82013B   26064.76994828  .00006292  00000+0  27291-3 0  9995
2 13068  81.1765 165.3635 0022412 190.4826 169.5942 15.21967374403758
SL-3 R/B                
1 13154U 82039B   26064.74733360  .00003970  00000+0  24015-3 0  9990
2 13154  81.1583 220.5069 0029824 337.2966  22.6937 15.10053601381044
